SPAWAR-CAL-O            
1 43766U 18099J   26068.73975788  .00021069  00000+0  69663-3 0  9999
2 43766  97.4452 132.0993 0007239 285.0670  74.9770 15.31356755398280
STARLINK-31918          
1 60037U 24111X   26068.34409352 -.00000798  00000+0 -14833-4 0  9995
2 60037  53.1608  77.0086 0001396  95.6385 264.4775 15.30187059 98915
